{
    "links": {
        "self": "http://www.neowsapp.com/rest/v1/neo/54051091?api_key=iIulBulltgU6a56xZRHN4H3l9WmuAYTsLGpBGhQ2"
    },
    "id": "54051091",
    "neo_reference_id": "54051091",
    "name": "(2020 PP4)",
    "designation": "2020 PP4",
    "nasa_jpl_url": "http://ssd.jpl.nasa.gov/sbdb.cgi?sstr=54051091",
    "absolute_magnitude_h": 24.985,
    "estimated_diameter": {
        "kilometers": {
            "estimated_diameter_min": 0.0267642438,
            "estimated_diameter_max": 0.0598466684
        },
        "meters": {
            "estimated_diameter_min": 26.7642437581,
            "estimated_diameter_max": 59.8466684094
        },
        "miles": {
            "estimated_diameter_min": 0.0166305249,
            "estimated_diameter_max": 0.0371869842
        },
        "feet": {
            "estimated_diameter_min": 87.8092014913,
            "estimated_diameter_max": 196.3473435844
        }
    },
    "is_potentially_hazardous_asteroid": false,
    "close_approach_data": [
        {
            "close_approach_date": "2018-08-28",
            "close_approach_date_full": "2018-Aug-28 02:06",
            "epoch_date_close_approach": 1535421960000,
            "relative_velocity": {
                "kilometers_per_second": "5.329862854",
                "kilometers_per_hour": "19187.5062744368",
                "miles_per_hour": "11922.3702181355"
            },
            "miss_distance": {
                "astronomical": "0.0739001912",
                "lunar": "28.7471743768",
                "kilometers": "11055311.196112744",
                "miles": "6869451.8365501072"
            },
            "orbiting_body": "Earth"
        },
        {
            "close_approach_date": "2020-08-18",
            "close_approach_date_full": "2020-Aug-18 22:44",
            "epoch_date_close_approach": 1597790640000,
            "relative_velocity": {
                "kilometers_per_second": "6.2020047831",
                "kilometers_per_hour": "22327.2172191865",
                "miles_per_hour": "13873.2644993329"
            },
            "miss_distance": {
                "astronomical": "0.0827276798",
                "lunar": "32.1810674422",
                "kilometers": "12375884.688122026",
                "miles": "7690018.1543189188"
            },
            "orbiting_body": "Earth"
        },
        {
            "close_approach_date": "2022-08-11",
            "close_approach_date_full": "2022-Aug-11 19:10",
            "epoch_date_close_approach": 1660245000000,
            "relative_velocity": {
                "kilometers_per_second": "8.0660808975",
                "kilometers_per_hour": "29037.8912311282",
                "miles_per_hour": "18043.0163596974"
            },
            "miss_distance": {
                "astronomical": "0.1470370606",
                "lunar": "57.1974165734",
                "kilometers": "21996431.076820922",
                "miles": "13667948.4799438436"
            },
            "orbiting_body": "Earth"
        },
        {
            "close_approach_date": "2024-08-04",
            "close_approach_date_full": "2024-Aug-04 16:28",
            "epoch_date_close_approach": 1722788880000,
            "relative_velocity": {
                "kilometers_per_second": "10.4708631372",
                "kilometers_per_hour": "37695.1072940341",
                "miles_per_hour": "23422.2737516736"
            },
            "miss_distance": {
                "astronomical": "0.2351003523",
                "lunar": "91.4540370447",
                "kilometers": "35170511.940329601",
                "miles": "21853942.7389304538"
            },
            "orbiting_body": "Earth"
        }
    ],
    "orbital_data": {
        "orbit_id": "2",
        "orbit_determination_date": "2020-08-19 07:55:03",
        "first_observation_date": "2020-08-14",
        "last_observation_date": "2020-08-19",
        "data_arc_in_days": 5,
        "observations_used": 19,
        "orbit_uncertainty": "8",
        "minimum_orbit_intersection": ".0685859",
        "jupiter_tisserand_invariant": "4.325",
        "epoch_osculation": "2459076.5",
        "eccentricity": ".3248640608888299",
        "semi_major_axis": "1.581160138321724",
        "inclination": "7.457094887426392",
        "ascending_node_longitude": "140.8047054575197",
        "orbital_period": "726.2099792176548",
        "perihelion_distance": "1.067498034870985",
        "perihelion_argument": "204.2507866198348",
        "aphelion_distance": "2.094822241772464",
        "perihelion_time": "2459096.407617620793",
        "mean_anomaly": "350.1313083700582",
        "mean_motion": ".4957243914326647",
        "equinox": "J2000",
        "orbit_class": {
            "orbit_class_type": "AMO",
            "orbit_class_description": "Near-Earth asteroid orbits similar to that of 1221 Amor",
            "orbit_class_range": "1.017 AU < q (perihelion) < 1.3 AU"
        }
    },
    "is_sentry_object": false
}